      2.10          N: GNSS NAV DATA                        RINEX VERSION / TYPE
fic2rin                                 07/09/2024 00:59:02 PGM / RUN BY / DATE
                                                            END OF HEADER
12 24  7  8 15 59 44.0 -.520613975823D-03 -.306954461848D-11  .000000000000D+00
     .800000000000D+02 -.108750000000D+02  .474912639161D-08  .142734931522D+01
    -.650063157082D-06  .867863395251D-02  .583752989769D-05  .515361812401D+04
     .143984000000D+06 -.108033418655D-06 -.754724424182D+00 -.189989805222D-06
     .961999919387D+00  .266593750000D+03  .145664939337D+01 -.814605360154D-08
    -.143577409147D-09  .100000000000D+01  .232200000000D+04  .000000000000D+00
     .240000000000D+01  .000000000000D+00 -.125728547573D-07  .800000000000D+02
     .136800000000D+06  .400000000000D+01
2  24  7  8 16  0  0.0 -.402928795666D-03  .727595761418D-11  .000000000000D+00
     .142000000000D+03  .114000000000D+03  .453804617070D-08 -.106926695096D+01
     .593811273575D-05  .160130512668D-01  .637210905552D-05  .515369646072D+04
     .144000000000D+06 -.284984707832D-06  .118607985802D+01 -.204890966415D-07
     .967132978548D+00  .268312500000D+03 -.116394079311D+01 -.832463246864D-08
     .336799743347D-09  .100000000000D+01  .232200000000D+04  .000000000000D+00
     .240000000000D+01  .000000000000D+00 -.176951289177D-07  .142000000000D+03
     .136800000000D+06  .400000000000D+01
3  24  7  8 16  0  0.0  .449247658253D-03  .165982783074D-10  .000000000000D+00
     .136000000000D+03 -.597500000000D+02  .421053252844D-08  .166427161187D+01
    -.330246984959D-05  .567688478623D-02  .221282243729D-05  .515369920731D+04
     .144000000000D+06 -.175088644028D-06  .232203813405D+01 -.104308128357D-06
     .985056327550D+00  .350531250000D+03  .111780792603D+01 -.815033949435D-08
    -.239295681911D-09  .100000000000D+01  .232200000000D+04  .000000000000D+00
     .240000000000D+01  .000000000000D+00  .139698386192D-08  .136000000000D+03
     .136800000000D+06  .400000000000D+01
7  24  7  8 16  0  0.0 -.742250122130D-04  .807176547823D-11  .000000000000D+00
     .370000000000D+02  .105625000000D+02  .469340978507D-08  .216369447490D+01
     .301748514175D-06  .186505819438D-01  .871531665325D-05  .515362347412D+04
     .144000000000D+06 -.372529029846D-07 -.187084355319D+01 -.366941094398D-06
     .949952667582D+00  .204031250000D+03 -.211097269501D+01 -.785211278630D-08
     .563594904561D-09  .100000000000D+01  .232200000000D+04  .000000000000D+00
     .340000000000D+01  .000000000000D+00 -.111758708954D-07  .370000000000D+02
     .136800000000D+06  .400000000000D+01
6  24  7  8 16  0  0.0  .173527747393D-03 -.223963070312D-10  .000000000000D+00
     .700000000000D+02  .118500000000D+03  .405195449445D-08  .305462615584D+01
     .621005892754D-05  .293831073213D-02  .564567744732D-05  .515365283585D+04
     .144000000000D+06 -.931322574615D-08  .128534695865D+01  .912696123123D-07
     .989516222031D+00  .286656250000D+03 -.707590246728D+00 -.786961351528D-08
     .294297972978D-09  .100000000000D+01  .232200000000D+04  .000000000000D+00
     .240000000000D+01  .000000000000D+00  .372529029846D-08  .700000000000D+02
     .136800000000D+06  .400000000000D+01
4  24  7  8 16  0  0.0  .399614218622D-03  .784439180279D-11  .000000000000D+00
     .119000000000D+03 -.973437500000D+02  .397945147441D-08 -.160518195731D+01
    -.508502125740D-05  .287370674778D-02  .105071812868D-04  .515373753166D+04
     .144000000000D+06 -.633299350739D-07 -.288324942389D+01 -.502914190292D-07
     .965618786653D+00  .178937500000D+03 -.296683607032D+01 -.769674917193D-08
    -.314298806093D-10  .100000000000D+01  .232200000000D+04  .000000000000D+00
     .240000000000D+01  .000000000000D+00 -.465661287308D-08  .375000000000D+03
     .136800000000D+06  .400000000000D+01
9  24  7  8 16  0  0.0  .265221111476D-03  .150066625793D-10  .000000000000D+00
     .510000000000D+02 -.102250000000D+03  .423267630796D-08 -.785800250820D+00
    -.532157719135D-05  .283747713547D-02  .990182161331D-05  .515364472961D+04
     .144000000000D+06 -.484287738800D-07 -.294307093979D+01  .353902578354D-07
     .959264714620D+00  .185781250000D+03  .196742716468D+01 -.791282960111D-08
    -.821462788651D-10  .100000000000D+01  .232200000000D+04  .000000000000D+00
     .240000000000D+01  .000000000000D+00  .931322574615D-09  .510000000000D+02
     .136800000000D+06  .400000000000D+01
24 24  7  8 16  0  0.0 -.482187606394D-03 -.181898940355D-11  .000000000000D+00
     .800000000000D+01  .165625000000D+01  .486341686655D-08 -.312433957562D+01
     .875443220139D-07  .154621083057D-01  .878237187862D-05  .515370759392D+04
     .144000000000D+06  .987201929092D-07 -.196865061770D+01 -.143423676491D-06
     .933726293311D+00  .193718750000D+03  .986443965328D+00 -.783211195319D-08
     .550737226130D-09  .100000000000D+01  .232200000000D+04  .000000000000D+00
     .240000000000D+01  .000000000000D+00  .232830643654D-08  .800000000000D+01
     .136800000000D+06  .400000000000D+01
26 24  7  8 16  0  0.0  .123562756926D-03 -.670752342558D-11  .000000000000D+00
     .200000000000D+02 -.728125000000D+01  .550987236544D-08  .596496462838D+00
    -.339001417160D-06  .893296115100D-02  .510178506374D-05  .515365662003D+04
     .144000000000D+06 -.204890966415D-07 -.905032163137D+00  .141561031342D-06
     .930618064915D+00  .265406250000D+03  .541259912139D+00 -.860214402811D-08
    -.167506977338D-09  .100000000000D+01  .232200000000D+04  .000000000000D+00
     .240000000000D+01  .000000000000D+00  .651925802231D-08  .200000000000D+02
     .136800000000D+06  .400000000000D+01
19 24  7  8 16  0  0.0  .507566612214D-03  .545696821064D-11  .000000000000D+00
     .120000000000D+02  .499375000000D+02  .427910681340D-08  .668570540852D+00
     .256113708019D-05  .998087844346D-02  .107735395432D-04  .515371910095D+04
     .144000000000D+06  .141561031342D-06  .327985125943D+00 -.156462192535D-06
     .967852596728D+00  .175406250000D+03  .258638814927D+01 -.780961101593D-08
    -.237152735506D-09  .100000000000D+01  .232200000000D+04  .000000000000D+00
     .240000000000D+01  .000000000000D+00 -.153668224812D-07  .120000000000D+02
     .136800000000D+06  .400000000000D+01
13 24  7  8 16  0  0.0  .663221813738D-03  .250111042988D-11  .000000000000D+00
     .930000000000D+02 -.958125000000D+02  .384587448182D-08 -.154821442781D+01
    -.496767461300D-05  .827655778266D-02  .102873891592D-04  .515366415405D+04
     .144000000000D+06  .253319740295D-06 -.277659946726D+01 -.372529029846D-07
     .972058854862D+00  .187406250000D+03  .931684548287D+00 -.757102964949D-08
    -.239295681911D-10  .100000000000D+01  .232200000000D+04  .000000000000D+00
     .240000000000D+01  .000000000000D+00 -.111758708954D-07  .930000000000D+02
     .136800000000D+06  .400000000000D+01
11 24  7  8 16  0  0.0 -.701081939042D-03 -.704858393874D-11  .000000000000D+00
     .430000000000D+02  .111093750000D+03  .453697469749D-08 -.197250692973D+01
     .588595867157D-05  .143579510041D-02  .527314841747D-05  .515373778343D+04
     .144000000000D+06  .949949026108D-07  .131748714597D+01 -.931322574615D-08
     .966064037473D+00  .280062500000D+03 -.259748022528D+01 -.820177020808D-08
     .272868508926D-09  .100000000000D+01  .232200000000D+04  .000000000000D+00
     .240000000000D+01  .000000000000D+00 -.884756445885D-08  .811000000000D+03
     .136800000000D+06  .400000000000D+01
14 24  7  8 16  0  0.0  .444047618657D-03  .898126018001D-11  .000000000000D+00
     .184000000000D+03 -.890625000000D+01  .515128600031D-08  .136951341510D+01
    -.528991222382D-06  .469103385694D-02  .568479299545D-05  .515369055176D+04
     .144000000000D+06 -.577419996262D-07 -.799818252235D+00  .558793544769D-07
     .945292128034D+00  .261000000000D+03 -.287598008448D+01 -.826748723117D-08
    -.240009997380D-09  .100000000000D+01  .232200000000D+04  .000000000000D+00
     .240000000000D+01  .000000000000D+00 -.791624188423D-08  .952000000000D+03
     .136800000000D+06  .400000000000D+01
31 24  7  8 16  0  0.0 -.226912088692D-03  .227373675443D-12  .000000000000D+00
     .440000000000D+02  .207500000000D+02  .465019369923D-08  .124536954029D+01
     .122934579849D-05  .104929159861D-01  .847317278385D-05  .515374681282D+04
     .144000000000D+06 -.178813934326D-06 -.184914677524D+01  .558793544769D-08
     .953905129909D+00  .217531250000D+03  .690459183436D+00 -.807926510525D-08
     .353943314588D-09  .100000000000D+01  .232200000000D+04  .000000000000D+00
     .240000000000D+01  .000000000000D+00 -.135041773319D-07  .440000000000D+02
     .136800000000D+06  .400000000000D+01
32 24  7  8 16  0  0.0 -.613159965724D-03  .181898940355D-11  .000000000000D+00
     .520000000000D+02 -.896562500000D+02  .423981946264D-08 -.557049517588D+00
    -.474415719509D-05  .778026715852D-02  .925920903683D-05  .515370442009D+04
     .144000000000D+06 -.186264514923D-07 -.292829178356D+01  .143423676491D-06
     .962655117970D+00  .203468750000D+03 -.212933331608D+01 -.800747640068D-08
    -.103932900651D-09  .100000000000D+01  .232200000000D+04  .000000000000D+00
     .240000000000D+01  .000000000000D+00  .931322574615D-09  .520000000000D+02
     .136800000000D+06  .400000000000D+01
17 24  7  8 16  0  0.0  .681411474943D-03 -.716227077646D-11  .000000000000D+00
     .280000000000D+02  .599062500000D+02  .421588989445D-08 -.129882636190D+01
     .322237610817D-05  .133990056347D-01  .110603868961D-04  .515376364326D+04
     .144000000000D+06 -.294297933578D-06  .283715478140D+00  .119209289551D-06
     .968663558051D+00  .177468750000D+03 -.131581568599D+01 -.784175521201D-08
    -.254296306748D-09  .100000000000D+01  .232200000000D+04  .000000000000D+00
     .240000000000D+01  .000000000000D+00 -.111758708954D-07  .280000000000D+02
     .136800000000D+06  .400000000000D+01
